{
  "type": "FeatureCollection",
  "features": [
    {
      "type": "Feature",
      "properties": {
        "norad_id": 36828,
        "name": "BEIDOU-2 IGSO-1 (C06)",
        "group": "beidou",
        "lat": 53.40011128839151,
        "lon": -119.46644704226323,
        "alt_km": 35929.19738763599,
        "timestamp": "2025-12-12T03:50:52.682130+00:00",
        "meta_object_name": "BEIDOU-2 IGSO-1 (C06)",
        "meta_object_id": "2010-036A",
        "meta_epoch": "2025-12-11T10:35:37.696992",
        "meta_mean_motion": 1.00276405,
        "meta_eccentricity": 0.00512004,
        "meta_inclination": 54.2848,
        "meta_ra_of_asc_node": 164.659,
        "meta_arg_of_pericenter": 215.8299,
        "meta_mean_anomaly": 326.6949,
        "meta_ephemeris_type": 0,
        "meta_classification_type": "U",
        "meta_norad_cat_id": 36828,
        "meta_element_set_no": 999,
        "meta_rev_at_epoch": 5621,
        "meta_bstar": 0,
        "meta_mean_motion_dot": -5.2e-07,
        "meta_mean_motion_ddot": 0,
        "tle_line1": "1 36828U 10036A   25345.44140853 -.00000052  00000+0  00000+0 0  9991",
        "tle_line2": "2 36828  54.2848 164.6590 0051200 215.8299 326.6949  1.00276405 56213"
      },
      "geometry": {
        "type": "Point",
        "coordinates": [
          -119.46644704226323,
          53.40011128839151
        ]
      }
    },
    {
      "type": "Feature",
      "properties": {
        "norad_id": 37210,
        "name": "BEIDOU-2 G4 (C04)",
        "group": "beidou",
        "lat": -2.41620191743599,
        "lon": -61.063549375512764,
        "alt_km": 35750.232809102716,
        "timestamp": "2025-12-12T03:50:52.682153+00:00",
        "meta_object_name": "BEIDOU-2 G4 (C04)",
        "meta_object_id": "2010-057A",
        "meta_epoch": "2025-12-11T14:16:18.193728",
        "meta_mean_motion": 1.00271431,
        "meta_eccentricity": 0.0010933,
        "meta_inclination": 3.1821,
        "meta_ra_of_asc_node": 69.9412,
        "meta_arg_of_pericenter": 190.619,
        "meta_mean_anomaly": 194.1423,
        "meta_ephemeris_type": 0,
        "meta_classification_type": "U",
        "meta_norad_cat_id": 37210,
        "meta_element_set_no": 999,
        "meta_rev_at_epoch": 5541,
        "meta_bstar": 0,
        "meta_mean_motion_dot": -1.05e-06,
        "meta_mean_motion_ddot": 0,
        "tle_line1": "1 37210U 10057A   25345.59465502 -.00000105  00000+0  00000+0 0  9996",
        "tle_line2": "2 37210   3.1821  69.9412 0010933 190.6190 194.1423  1.00271431 55411"
      },
      "geometry": {
        "type": "Point",
        "coordinates": [
          -61.063549375512764,
          -2.41620191743599
        ]
      }
    },
    {
      "type": "Feature",
      "properties": {
        "norad_id": 37256,
        "name": "BEIDOU-2 IGSO-2 (C07)",
        "group": "beidou",
        "lat": -19.86030882136971,
        "lon": -104.89885187549875,
        "alt_km": 35877.600992876636,
        "timestamp": "2025-12-12T03:50:52.682167+00:00",
        "meta_object_name": "BEIDOU-2 IGSO-2 (C07)",
        "meta_object_id": "2010-068A",
        "meta_epoch": "2025-12-03T17:22:36.027840",
        "meta_mean_motion": 1.0028872,
        "meta_eccentricity": 0.00492449,
        "meta_inclination": 47.9042,
        "meta_ra_of_asc_node": 274.2614,
        "meta_arg_of_pericenter": 216.1411,
        "meta_mean_anomaly": 310.24,
        "meta_ephemeris_type": 0,
        "meta_classification_type": "U",
        "meta_norad_cat_id": 37256,
        "meta_element_set_no": 999,
        "meta_rev_at_epoch": 5483,
        "meta_bstar": 0,
        "meta_mean_motion_dot": -2.25e-06,
        "meta_mean_motion_ddot": 0,
        "tle_line1": "1 37256U 10068A   25337.72402810 -.00000225  00000+0  00000+0 0  9990",
        "tle_line2": "2 37256  47.9042 274.2614 0049244 216.1411 310.2400  1.00288720 54834"
      },
      "geometry": {
        "type": "Point",
        "coordinates": [
          -104.89885187549875,
          -19.86030882136971
        ]
      }
    },
    {
      "type": "Feature",
      "properties": {
        "norad_id": 37384,
        "name": "BEIDOU-2 IGSO-3 (C08)",
        "group": "beidou",
        "lat": -21.56184194249188,
        "lon": -126.00436339408147,
        "alt_km": 35646.67271587709,
        "timestamp": "2025-12-12T03:50:52.682182+00:00",
        "meta_object_name": "BEIDOU-2 IGSO-3 (C08)",
        "meta_object_id": "2011-013A",
        "meta_epoch": "2025-12-11T15:37:03.975744",
        "meta_mean_motion": 1.00271037,
        "meta_eccentricity": 0.00354451,
        "meta_inclination": 62.1431,
        "meta_ra_of_asc_node": 41.9258,
        "meta_arg_of_pericenter": 187.4472,
        "meta_mean_anomaly": 193.0762,
        "meta_ephemeris_type": 0,
        "meta_classification_type": "U",
        "meta_norad_cat_id": 37384,
        "meta_element_set_no": 999,
        "meta_rev_at_epoch": 5378,
        "meta_bstar": 0,
        "meta_mean_motion_dot": -1.96e-06,
        "meta_mean_motion_ddot": 0,
        "tle_line1": "1 37384U 11013A   25345.65074046 -.00000196  00000+0  00000+0 0  9997",
        "tle_line2": "2 37384  62.1431  41.9258 0035445 187.4472 193.0762  1.00271037 53789"
      },
      "geometry": {
        "type": "Point",
        "coordinates": [
          -126.00436339408147,
          -21.56184194249188
        ]
      }
    },
    {
      "type": "Feature",
      "properties": {
        "norad_id": 37763,
        "name": "BEIDOU-2 IGSO-4 (C09)",
        "group": "beidou",
        "lat": 47.785016542624284,
        "lon": -140.9114950278503,
        "alt_km": 36383.74367873709,
        "timestamp": "2025-12-12T03:50:52.682194+00:00",
        "meta_object_name": "BEIDOU-2 IGSO-4 (C09)",
        "meta_object_id": "2011-038A",
        "meta_epoch": "2025-12-10T12:04:03.489024",
        "meta_mean_motion": 1.00284678,
        "meta_eccentricity": 0.01490344,
        "meta_inclination": 54.5829,
        "meta_ra_of_asc_node": 167.3658,
        "meta_arg_of_pericenter": 230.2355,
        "meta_mean_anomaly": 317.2212,
        "meta_ephemeris_type": 0,
        "meta_classification_type": "U",
        "meta_norad_cat_id": 37763,
        "meta_element_set_no": 999,
        "meta_rev_at_epoch": 5275,
        "meta_bstar": 0,
        "meta_mean_motion_dot": 3.6e-07,
        "meta_mean_motion_ddot": 0,
        "tle_line1": "1 37763U 11038A   25344.50281816  .00000036  00000+0  00000+0 0  9995",
        "tle_line2": "2 37763  54.5829 167.3658 0149034 230.2355 317.2212  1.00284678 52751"
      },
      "geometry": {
        "type": "Point",
        "coordinates": [
          -140.9114950278503,
          47.785016542624284
        ]
      }
    },
    {
      "type": "Feature",
      "properties": {
        "norad_id": 37948,
        "name": "BEIDOU-2 IGSO-5 (C10)",
        "group": "beidou",
        "lat": -29.101886103748114,
        "lon": -116.1731529583651,
        "alt_km": 35836.126640309216,
        "timestamp": "2025-12-12T03:50:52.682206+00:00",
        "meta_object_name": "BEIDOU-2 IGSO-5 (C10)",
        "meta_object_id": "2011-073A",
        "meta_epoch": "2025-12-11T15:50:40.325280",
        "meta_mean_motion": 1.00291322,
        "meta_eccentricity": 0.01102376,
        "meta_inclination": 48.022,
        "meta_ra_of_asc_node": 273.8705,
        "meta_arg_of_pericenter": 222.2741,
        "meta_mean_anomaly": 275.0578,
        "meta_ephemeris_type": 0,
        "meta_classification_type": "U",
        "meta_norad_cat_id": 37948,
        "meta_element_set_no": 999,
        "meta_rev_at_epoch": 5125,
        "meta_bstar": 0,
        "meta_mean_motion_dot": -2.2e-06,
        "meta_mean_motion_ddot": 0,
        "tle_line1": "1 37948U 11073A   25345.66018895 -.00000220  00000+0  00000+0 0  9998",
        "tle_line2": "2 37948  48.0220 273.8705 0110237 222.2741 275.0578  1.00291322 51252"
      },
      "geometry": {
        "type": "Point",
        "coordinates": [
          -116.1731529583651,
          -29.101886103748114
        ]
      }
    },
    {
      "type": "Feature",
      "properties": {
        "norad_id": 38091,
        "name": "BEIDOU-2 G5 (C05)",
        "group": "beidou",
        "lat": 2.4793367112494837,
        "lon": -162.49221199411187,
        "alt_km": 35794.01030238797,
        "timestamp": "2025-12-12T03:50:52.682218+00:00",
        "meta_object_name": "BEIDOU-2 G5 (C05)",
        "meta_object_id": "2012-008A",
        "meta_epoch": "2025-12-11T16:12:26.428896",
        "meta_mean_motion": 1.00275156,
        "meta_eccentricity": 0.00125769,
        "meta_inclination": 3.1069,
        "meta_ra_of_asc_node": 70.7117,
        "meta_arg_of_pericenter": 227.0621,
        "meta_mean_anomaly": 84.743,
        "meta_ephemeris_type": 0,
        "meta_classification_type": "U",
        "meta_norad_cat_id": 38091,
        "meta_element_set_no": 999,
        "meta_rev_at_epoch": 5048,
        "meta_bstar": 0,
        "meta_mean_motion_dot": 6.3e-07,
        "meta_mean_motion_ddot": 0,
        "tle_line1": "1 38091U 12008A   25345.67530589  .00000063  00000+0  00000+0 0  9991",
        "tle_line2": "2 38091   3.1069  70.7117 0012576 227.0621  84.7430  1.00275156 50486"
      },
      "geometry": {
        "type": "Point",
        "coordinates": [
          -162.49221199411187,
          2.4793367112494837
        ]
      }
    }
  ]
}